STARLINK-34421          
1 64459U 25130X   26057.59937725  .00029133  00000+0  99213-3 0  9990
2 64459  53.1579 140.1444 0001089  89.4709 270.6416 15.30192148 39005
2025-313BE              
1 67482U 25313BE  26068.69721505  .00077178  00000+0  26504-2 0  9996
2 67482  97.3989 145.3568 0007208 335.3714  24.7181 15.29801687  7972
